     2.11           N: GPS NAV DATA                         RINEX VERSION / TYPE
RTKCONV demo5 b34f.1                    20231105 175416 UTC PGM / RUN BY / DATE 
format: u-blox UBX                                          COMMENT             
log: C:\Users\oo\Desktop\divers\verniquet\Reseau\verniquet\mCOMMENT             
                                                            END OF HEADER       
24 23 11 05 18 00 00.0 -.364098697901D-03 -.920863385545D-11  .000000000000D+00
     .990000000000D+02 -.278125000000D+01  .524343269573D-08  .175235495248D+01
    -.221654772758D-06  .148012103746D-01  .917352735996D-05  .515363206482D+04
     .648000000000D+05 -.406056642532D-06  .242170213899D+01 -.175088644028D-06
     .934003624543D+00  .190843750000D+03  .938844866657D+00 -.829713132311D-08
     .183579075377D-09  .100000000000D+01  .228700000000D+04  .000000000000D+00
     .200000000000D+01  .000000000000D+00  .232830643654D-08  .990000000000D+02
     .612060000000D+05  .400000000000D+01
12 23 11 05 18 00 00.0 -.443769153208D-03 -.409272615798D-11  .000000000000D+00
     .630000000000D+02  .296562500000D+02  .470983904084D-08  .545453935889D-01
     .152550637722D-05  .867846491747D-02  .662170350552D-05  .515376224136D+04
     .648000000000D+05 -.949949026108D-07 -.265324119700D+01  .316649675369D-07
     .964261362522D+00  .253968750000D+03  .139488457367D+01 -.824498629392D-08
    -.228938107620D-09  .100000000000D+01  .228700000000D+04  .000000000000D+00
     .200000000000D+01  .000000000000D+00 -.125728547573D-07  .630000000000D+02
     .612060000000D+05  .400000000000D+01
19 23 11 05 17 59 44.0  .394827220589D-03  .522959453519D-11  .000000000000D+00
     .120000000000D+02  .265000000000D+02  .411517141341D-08 -.627128868766D+00
     .148639082909D-05  .936428760178D-02  .812858343124D-05  .515366220856D+04
     .647840000000D+05 -.173225998878D-06 -.156918862810D+01 -.208616256714D-06
     .970843810696D+00  .232406250000D+03  .244241130241D+01 -.792854454142D-08
    -.229652423088D-09  .100000000000D+01  .228700000000D+04  .000000000000D+00
     .200000000000D+01  .000000000000D+00 -.153668224812D-07  .120000000000D+02
     .612060000000D+05  .400000000000D+01
15 23 11 05 18 00 00.0  .941925682127D-04  .375166564481D-11  .000000000000D+00
     .680000000000D+02 -.707500000000D+02  .509556939378D-08  .251745106647D+01
    -.379048287868D-05  .154642973794D-01  .699236989021D-05  .515356926727D+04
     .648000000000D+05  .115483999252D-06  .132029138291D+01 -.182539224625D-06
     .933277057501D+00  .230156250000D+03  .126868209809D+01 -.804569227824D-08
     .685742849656D-10  .100000000000D+01  .228700000000D+04  .000000000000D+00
     .200000000000D+01  .000000000000D+00 -.107102096081D-07  .680000000000D+02
     .612060000000D+05  .400000000000D+01
17 23 11 05 18 00 00.0  .723487231880D-03 -.227373675443D-12  .000000000000D+00
     .300000000000D+01  .336250000000D+02  .404195407790D-08 -.268121266174D+01
     .183098018169D-05  .138263372937D-01  .796467065811D-05  .515361351013D+04
     .648000000000D+05  .128522515297D-06 -.161364879319D+01  .353902578354D-07
     .971720119106D+00  .232531250000D+03 -.138100652671D+01 -.759174479807D-08
    -.302155443130D-09  .100000000000D+01  .228700000000D+04  .000000000000D+00
     .200000000000D+01  .000000000000D+00 -.111758708954D-07  .300000000000D+01
     .611160000000D+05  .400000000000D+01
23 23 11 05 18 00 00.0  .940235331655D-04  .613908923697D-11  .000000000000D+00
     .225000000000D+03 -.361875000000D+02  .424017662038D-08  .515062629100D+00
    -.185519456863D-05  .382078741677D-02  .462308526039D-05  .515369120026D+04
     .648000000000D+05  .540167093277D-07  .390156825586D+00  .353902578354D-07
     .976368868997D+00  .298781250000D+03 -.305263632685D+01 -.805712132573D-08
     .137862885400D-09  .100000000000D+01  .228700000000D+04  .000000000000D+00
     .200000000000D+01  .000000000000D+00 -.838190317154D-08  .225000000000D+03
     .612060000000D+05  .400000000000D+01
10 23 11 05 18 00 00.0 -.602193176746D-04 -.147792889038D-11  .000000000000D+00
     .740000000000D+02 -.389687500000D+02  .417660254369D-08 -.677377712918D+00
    -.185146927834D-05  .902861251961D-02  .485405325890D-05  .515368555641D+04
     .648000000000D+05  .707805156708D-07  .418148964280D+00  .132247805595D-06
     .981213635281D+00  .294718750000D+03 -.243136602075D+01 -.808962267954D-08
     .137862885400D-09  .100000000000D+01  .228700000000D+04  .000000000000D+00
     .280000000000D+01  .000000000000D+00  .232830643654D-08  .740000000000D+02
     .612060000000D+05  .400000000000D+01
25 23 11 05 18 00 00.0  .476061832160D-03  .170530256582D-11  .000000000000D+00
     .790000000000D+02  .299687500000D+02  .506378235543D-08 -.128794163697D+00
     .162422657013D-05  .113768994343D-01  .634416937828D-05  .515365478325D+04
     .648000000000D+05 -.651925802231D-07 -.273743191888D+01  .912696123123D-07
     .952106213194D+00  .251531250000D+03  .105502033788D+01 -.846820987779D-08
    -.227509476683D-09  .100000000000D+01  .228700000000D+04  .000000000000D+00
     .200000000000D+01  .000000000000D+00  .558793544769D-08  .790000000000D+02
     .612060000000D+05  .400000000000D+01
13 23 11 05 18 00 00.0  .592018477619D-03  .409272615798D-11  .000000000000D+00
     .430000000000D+02 -.631250000000D+02  .430803658987D-08 -.306935406751D+01
    -.339560210705D-05  .767950678710D-02  .855512917042D-05  .515366596031D+04
     .648000000000D+05  .335276126862D-07  .160580827497D+01 -.137835741043D-06
     .970085868450D+00  .220656250000D+03  .952398508615D+00 -.772782189480D-08
     .122862260563D-09  .100000000000D+01  .228700000000D+04  .000000000000D+00
     .200000000000D+01  .000000000000D+00 -.116415321827D-07  .430000000000D+02
     .598860000000D+05  .400000000000D+01
32 23 11 05 17 59 44.0 -.582098029554D-03 -.466116034659D-11  .000000000000D+00
     .190000000000D+02 -.654687500000D+02  .452733143867D-08 -.199479340850D+01
    -.340305268764D-05  .708225427661D-02  .814720988274D-05  .515359476280D+04
     .647840000000D+05  .894069671631D-07  .145677697446D+01 -.428408384323D-07
     .960228387035D+00  .219250000000D+03 -.222368290975D+01 -.788068540504D-08
     .161792453591D-09  .100000000000D+01  .228700000000D+04  .000000000000D+00
     .200000000000D+01  .000000000000D+00  .465661287308D-09  .190000000000D+02
     .612060000000D+05  .400000000000D+01
